[{"OBJECT_NAME":"STARLINK-31246","OBJECT_ID":"2024-017K","EPOCH":"2026-03-09T15:57:15.385824","MEAN_MOTION":15.30192976,"ECCENTRICITY":8.741e-5,"INCLINATION":53.1589,"RA_OF_ASC_NODE":204.345,"ARG_OF_PERICENTER":94.8843,"MEAN_ANOMALY":265.2258,"EPHEMERIS_TYPE":0,"CLASSIFICATION_TYPE":"U","NORAD_CAT_ID":58835,"ELEMENT_SET_NO":999,"REV_AT_EPOCH":12005,"BSTAR":7.121923e-6,"MEAN_MOTION_DOT":-1.48e-6,"MEAN_MOTION_DDOT":0},{"OBJECT_NAME":"SIMSAT 1","OBJECT_ID":"2000-026A","EPOCH":"2026-03-09T17:22:54.646176","MEAN_MOTION":15.27666538,"ECCENTRICITY":0.00084816,"INCLINATION":86.3501,"RA_OF_ASC_NODE":180.5413,"ARG_OF_PERICENTER":14.8337,"MEAN_ANOMALY":345.3157,"EPHEMERIS_TYPE":0,"CLASSIFICATION_TYPE":"U","NORAD_CAT_ID":26365,"ELEMENT_SET_NO":999,"REV_AT_EPOCH":42720,"BSTAR":0.00013499313,"MEAN_MOTION_DOT":3.69e-5,"MEAN_MOTION_DDOT":0}]
